{
  "type": "FeatureCollection",
  "features": [
    {
      "type": "Feature",
      "properties": {
        "norad_id": 65731,
        "name": "1998-067XK",
        "group": "stations",
        "lat": 0.6553047682115325,
        "lon": 72.29876374595047,
        "alt_km": 362.0133457880738,
        "timestamp": "2025-12-25T14:48:23.604061+00:00",
        "meta_object_name": "1998-067XK",
        "meta_object_id": "1998-067XK",
        "meta_epoch": "2025-12-24T11:16:20.028000",
        "meta_mean_motion": 15.67978094,
        "meta_eccentricity": 0.00049802,
        "meta_inclination": 51.6288,
        "meta_ra_of_asc_node": 77.6233,
        "meta_arg_of_pericenter": 319.0572,
        "meta_mean_anomaly": 41.005,
        "meta_ephemeris_type": 0,
        "meta_classification_type": "U",
        "meta_norad_cat_id": 65731,
        "meta_element_set_no": 999,
        "meta_rev_at_epoch": 1498,
        "meta_bstar": 0.00093626937,
        "meta_mean_motion_dot": 0.00106638,
        "meta_mean_motion_ddot": 0,
        "tle_line1": "1 65731U 98067XK  25358.46967625  .00106638  00000+0  93627-3 0  9993",
        "tle_line2": "2 65731  51.6288  77.6233 0004980 319.0572  41.0050 15.67978094 14988"
      },
      "geometry": {
        "type": "Point",
        "coordinates": [
          72.29876374595047,
          0.6553047682115325
        ]
      }
    },
    {
      "type": "Feature",
      "properties": {
        "norad_id": 65732,
        "name": "RSP-03",
        "group": "stations",
        "lat": 39.262047620151876,
        "lon": -149.61471601405538,
        "alt_km": 351.61520114680206,
        "timestamp": "2025-12-25T14:48:23.604070+00:00",
        "meta_object_name": "RSP-03",
        "meta_object_id": "1998-067XL",
        "meta_epoch": "2025-12-25T06:38:37.432032",
        "meta_mean_motion": 15.71873826,
        "meta_eccentricity": 0.00060461,
        "meta_inclination": 51.626,
        "meta_ra_of_asc_node": 72.4976,
        "meta_arg_of_pericenter": 331.0296,
        "meta_mean_anomaly": 29.0366,
        "meta_ephemeris_type": 0,
        "meta_classification_type": "U",
        "meta_norad_cat_id": 65732,
        "meta_element_set_no": 999,
        "meta_rev_at_epoch": 1513,
        "meta_bstar": 0.0010910555,
        "meta_mean_motion_dot": 0.00147046,
        "meta_mean_motion_ddot": 0,
        "tle_line1": "1 65732U 98067XL  25359.27682213  .00147046  00000+0  10911-2 0  9993",
        "tle_line2": "2 65732  51.6260  72.4976 0006046 331.0296  29.0366 15.71873826 15134"
      },
      "geometry": {
        "type": "Point",
        "coordinates": [
          -149.61471601405538,
          39.262047620151876
        ]
      }
    },
    {
      "type": "Feature",
      "properties": {
        "norad_id": 65733,
        "name": "GHS-01",
        "group": "stations",
        "lat": 21.583023401258878,
        "lon": 86.9721042395963,
        "alt_km": 320.1548414887775,
        "timestamp": "2025-12-25T14:48:23.604080+00:00",
        "meta_object_name": "GHS-01",
        "meta_object_id": "1998-067XM",
        "meta_epoch": "2025-12-25T05:35:06.591552",
        "meta_mean_motion": 15.80593355,
        "meta_eccentricity": 0.0009577,
        "meta_inclination": 51.6284,
        "meta_ra_of_asc_node": 70.699,
        "meta_arg_of_pericenter": 357.1699,
        "meta_mean_anomaly": 2.9247,
        "meta_ephemeris_type": 0,
        "meta_classification_type": "U",
        "meta_norad_cat_id": 65733,
        "meta_element_set_no": 999,
        "meta_rev_at_epoch": 1515,
        "meta_bstar": 0.0014478378,
        "meta_mean_motion_dot": 0.00292396,
        "meta_mean_motion_ddot": 0,
        "tle_line1": "1 65733U 98067XM  25359.23271518  .00292396  00000+0  14478-2 0  9993",
        "tle_line2": "2 65733  51.6284  70.6990 0009577 357.1699   2.9247 15.80593355 15151"
      },
      "geometry": {
        "type": "Point",
        "coordinates": [
          86.9721042395963,
          21.583023401258878
        ]
      }
    },
    {
      "type": "Feature",
      "properties": {
        "norad_id": 65941,
        "name": "YOTSUBA-KULOVER",
        "group": "stations",
        "lat": 5.36006992949985,
        "lon": -109.0892958518678,
        "alt_km": 385.9407886283534,
        "timestamp": "2025-12-25T14:48:23.604091+00:00",
        "meta_object_name": "YOTSUBA-KULOVER",
        "meta_object_id": "1998-067XN",
        "meta_epoch": "2025-12-25T06:23:13.150752",
        "meta_mean_motion": 15.61130686,
        "meta_eccentricity": 0.00025006,
        "meta_inclination": 51.6289,
        "meta_ra_of_asc_node": 76.9426,
        "meta_arg_of_pericenter": 358.5188,
        "meta_mean_anomaly": 1.5798,
        "meta_ephemeris_type": 0,
        "meta_classification_type": "U",
        "meta_norad_cat_id": 65941,
        "meta_element_set_no": 999,
        "meta_rev_at_epoch": 1181,
        "meta_bstar": 0.0008153338,
        "meta_mean_motion_dot": 0.00070283,
        "meta_mean_motion_ddot": 0,
        "tle_line1": "1 65941U 98067XN  25359.26612443  .00070283  00000+0  81533-3 0  9999",
        "tle_line2": "2 65941  51.6289  76.9426 0002500 358.5188   1.5798 15.61130686 11815"
      },
      "geometry": {
        "type": "Point",
        "coordinates": [
          -109.0892958518678,
          5.36006992949985
        ]
      }
    },
    {
      "type": "Feature",
      "properties": {
        "norad_id": 65942,
        "name": "BOTAN",
        "group": "stations",
        "lat": -28.266722460203226,
        "lon": 48.89110347734175,
        "alt_km": 372.91226106821705,
        "timestamp": "2025-12-25T14:48:23.604100+00:00",
        "meta_object_name": "BOTAN",
        "meta_object_id": "1998-067XP",
        "meta_epoch": "2025-12-24T22:06:45.138528",
        "meta_mean_motion": 15.65433076,
        "meta_eccentricity": 0.00033628,
        "meta_inclination": 51.6276,
        "meta_ra_of_asc_node": 77.6384,
        "meta_arg_of_pericenter": 336.9031,
        "meta_mean_anomaly": 23.1813,
        "meta_ephemeris_type": 0,
        "meta_classification_type": "U",
        "meta_norad_cat_id": 65942,
        "meta_element_set_no": 999,
        "meta_rev_at_epoch": 1177,
        "meta_bstar": 0.0011375872,
        "meta_mean_motion_dot": 0.00117098,
        "meta_mean_motion_ddot": 0,
        "tle_line1": "1 65942U 98067XP  25358.92135577  .00117098  00000+0  11376-2 0  9993",
        "tle_line2": "2 65942  51.6276  77.6384 0003362 336.9031  23.1813 15.65433076 11773"
      },
      "geometry": {
        "type": "Point",
        "coordinates": [
          48.89110347734175,
          -28.266722460203226
        ]
      }
    },
    {
      "type": "Feature",
      "properties": {
        "norad_id": 65943,
        "name": "E-KAGAKU-1",
        "group": "stations",
        "lat": 5.77524214136079,
        "lon": -109.41627655584843,
        "alt_km": 384.9823142739142,
        "timestamp": "2025-12-25T14:48:23.604111+00:00",
        "meta_object_name": "E-KAGAKU-1",
        "meta_object_id": "1998-067XQ",
        "meta_epoch": "2025-12-24T11:57:09.904320",
        "meta_mean_motion": 15.61022855,
        "meta_eccentricity": 0.00014072,
        "meta_inclination": 51.6316,
        "meta_ra_of_asc_node": 80.8196,
        "meta_arg_of_pericenter": 317.6976,
        "meta_mean_anomaly": 42.3909,
        "meta_ephemeris_type": 0,
        "meta_classification_type": "U",
        "meta_norad_cat_id": 65943,
        "meta_element_set_no": 999,
        "meta_rev_at_epoch": 1169,
        "meta_bstar": 0.00086882896,
        "meta_mean_motion_dot": 0.00074652,
        "meta_mean_motion_ddot": 0,
        "tle_line1": "1 65943U 98067XQ  25358.49803130  .00074652  00000+0  86883-3 0  9997",
        "tle_line2": "2 65943  51.6316  80.8196 0001407 317.6976  42.3909 15.61022855 11693"
      },
      "geometry": {
        "type": "Point",
        "coordinates": [
          -109.41627655584843,
          5.77524214136079
        ]
      }
    },
    {
      "type": "Feature",
      "properties": {
        "norad_id": 66052,
        "name": "HRC MONOBLOCK CAMERA",
        "group": "stations",
        "lat": -47.833904588450224,
        "lon": -41.71740815940611,
        "alt_km": 405.1604371123285,
        "timestamp": "2025-12-25T14:48:23.604121+00:00",
        "meta_object_name": "HRC MONOBLOCK CAMERA",
        "meta_object_id": "1998-067XR",
        "meta_epoch": "2025-12-25T04:28:38.396064",
        "meta_mean_motion": 15.54995284,
        "meta_eccentricity": 0.00020993,
        "meta_inclination": 51.6301,
        "meta_ra_of_asc_node": 79.4075,
        "meta_arg_of_pericenter": 245.5071,
        "meta_mean_anomaly": 114.5701,
        "meta_ephemeris_type": 0,
        "meta_classification_type": "U",
        "meta_norad_cat_id": 66052,
        "meta_element_set_no": 999,
        "meta_rev_at_epoch": 1077,
        "meta_bstar": 0.00053053215,
        "meta_mean_motion_dot": 0.00035933,
        "meta_mean_motion_ddot": 0,
        "tle_line1": "1 66052U 98067XR  25359.18655551  .00035933  00000+0  53053-3 0  9990",
        "tle_line2": "2 66052  51.6301  79.4075 0002099 245.5071 114.5701 15.54995284 10779"
      },
      "geometry": {
        "type": "Point",
        "coordinates": [
          -41.71740815940611,
          -47.833904588450224
        ]
      }
    }
  ]
}